{
"type": "FeatureCollection",
"crs": { "type": "name", "properties": { "name": "urn:ogc:def:crs:OGC:1.3:CRS84" } },
                                                                                
"features": [
{ "type": "Feature", "properties": { "@id": "node\/639734982", "amenity": "drinking_water", "name": null }, "geometry": { "type": "Point", "coordinates": [ 8.4564899, 44.9930799 ] } },
{ "type": "Feature", "properties": { "@id": "node\/639734999", "amenity": "drinking_water", "name": null }, "geometry": { "type": "Point", "coordinates": [ 8.3362164, 45.021763 ] } },
{ "type": "Feature", "properties": { "@id": "node\/639735004", "amenity": "drinking_water", "name": null }, "geometry": { "type": "Point", "coordinates": [ 8.3134145, 45.0388361 ] } },
{ "type": "Feature", "properties": { "@id": "node\/639735008", "amenity": "drinking_water", "name": null }, "geometry": { "type": "Point", "coordinates": [ 8.3407598, 45.02275 ] } },
{ "type": "Feature", "properties": { "@id": "node\/639735035", "amenity": "drinking_water", "name": null }, "geometry": { "type": "Point", "coordinates": [ 8.3458499, 45.0512901 ] } },
{ "type": "Feature", "properties": { "@id": "node\/639735052", "amenity": "drinking_water", "name": "Casetta dell'acqua" }, "geometry": { "type": "Point", "coordinates": [ 8.3376, 45.05207 ] } },
{ "type": "Feature", "properties": { "@id": "node\/639735059", "amenity": "drinking_water", "name": null }, "geometry": { "type": "Point", "coordinates": [ 8.3990998, 45.01001 ] } },
{ "type": "Feature", "properties": { "@id": "node\/639735062", "amenity": "drinking_water", "name": null }, "geometry": { "type": "Point", "coordinates": [ 8.4198899, 45.00046 ] } },
{ "type": "Feature", "properties": { "@id": "node\/639779843", "amenity": "drinking_water", "name": null }, "geometry": { "type": "Point", "coordinates": [ 8.1485899, 45.0876999 ] } },
{ "type": "Feature", "properties": { "@id": "node\/639779855", "amenity": "drinking_water", "name": null }, "geometry": { "type": "Point", "coordinates": [ 8.095352, 45.1592658 ] } },
{ "type": "Feature", "properties": { "@id": "node\/639779859", "amenity": "drinking_water", "name": null }, "geometry": { "type": "Point", "coordinates": [ 8.2121301, 45.1138699 ] } },
{ "type": "Feature", "properties": { "@id": "node\/639779863", "amenity": "drinking_water", "name": null }, "geometry": { "type": "Point", "coordinates": [ 8.2495701, 45.1319701 ] } },
{ "type": "Feature", "properties": { "@id": "node\/639779865", "amenity": "drinking_water", "name": null }, "geometry": { "type": "Point", "coordinates": [ 8.3699099, 45.0525198 ] } },
{ "type": "Feature", "properties": { "@id": "node\/639779873", "amenity": "drinking_water", "name": null }, "geometry": { "type": "Point", "coordinates": [ 8.3540399, 45.0707 ] } },
{ "type": "Feature", "properties": { "@id": "node\/639779892", "amenity": "drinking_water", "name": null }, "geometry": { "type": "Point", "coordinates": [ 8.3552997, 45.0709601 ] } },
{ "type": "Feature", "properties": { "@id": "node\/639779896", "amenity": "drinking_water", "name": null }, "geometry": { "type": "Point", "coordinates": [ 8.3589299, 45.0743899 ] } },
{ "type": "Feature", "properties": { "@id": "node\/639779897", "amenity": "drinking_water", "name": null }, "geometry": { "type": "Point", "coordinates": [ 8.38739, 45.07824 ] } },
{ "type": "Feature", "properties": { "@id": "node\/639779904", "amenity": "drinking_water", "name": null }, "geometry": { "type": "Point", "coordinates": [ 8.40262, 45.0620199 ] } },
{ "type": "Feature", "properties": { "@id": "node\/639779906", "amenity": "drinking_water", "name": null }, "geometry": { "type": "Point", "coordinates": [ 8.3980565, 45.0815431 ] } },
{ "type": "Feature", "properties": { "@id": "node\/639779910", "amenity": "drinking_water", "name": null }, "geometry": { "type": "Point", "coordinates": [ 8.3115499, 45.11385 ] } },
{ "type": "Feature", "properties": { "@id": "node\/639779914", "amenity": "drinking_water", "name": null }, "geometry": { "type": "Point", "coordinates": [ 8.3712939, 45.1072956 ] } },
{ "type": "Feature", "properties": { "@id": "node\/639779919", "amenity": "drinking_water", "name": null }, "geometry": { "type": "Point", "coordinates": [ 8.4123297, 45.1080101 ] } },
{ "type": "Feature", "properties": { "@id": "node\/639779922", "amenity": "drinking_water", "name": null }, "geometry": { "type": "Point", "coordinates": [ 8.3619531, 45.1389711 ] } },
{ "type": "Feature", "properties": { "@id": "node\/639779972", "amenity": "drinking_water", "name": null }, "geometry": { "type": "Point", "coordinates": [ 8.4552999, 45.02014 ] } },
{ "type": "Feature", "properties": { "@id": "node\/639779973", "amenity": "drinking_water", "name": null }, "geometry": { "type": "Point", "coordinates": [ 8.4537405, 45.0437903 ] } },
{ "type": "Feature", "properties": { "@id": "node\/639779976", "amenity": "drinking_water", "name": null }, "geometry": { "type": "Point", "coordinates": [ 8.4422799, 45.08334 ] } },
{ "type": "Feature", "properties": { "@id": "node\/639779978", "amenity": "drinking_water", "name": null }, "geometry": { "type": "Point", "coordinates": [ 8.4483583, 45.1369103 ] } },
{ "type": "Feature", "properties": { "@id": "node\/951519402", "amenity": "drinking_water", "name": null }, "geometry": { "type": "Point", "coordinates": [ 8.4576228, 45.134125 ] } },
{ "type": "Feature", "properties": { "@id": "node\/957112304", "amenity": "drinking_water", "name": null }, "geometry": { "type": "Point", "coordinates": [ 8.4470872, 45.121769 ] } },
{ "type": "Feature", "properties": { "@id": "node\/957112323", "amenity": "drinking_water", "name": null }, "geometry": { "type": "Point", "coordinates": [ 8.4497823, 45.1317322 ] } },
{ "type": "Feature", "properties": { "@id": "node\/957112343", "amenity": "drinking_water", "name": null }, "geometry": { "type": "Point", "coordinates": [ 8.4459421, 45.1383837 ] } },
{ "type": "Feature", "properties": { "@id": "node\/1010679530", "amenity": "drinking_water", "name": null }, "geometry": { "type": "Point", "coordinates": [ 8.44985, 45.1342971 ] } },
{ "type": "Feature", "properties": { "@id": "node\/1030693471", "amenity": "drinking_water", "name": null }, "geometry": { "type": "Point", "coordinates": [ 8.4583934, 45.1271851 ] } },
{ "type": "Feature", "properties": { "@id": "node\/1051105042", "amenity": "drinking_water", "name": null }, "geometry": { "type": "Point", "coordinates": [ 8.4441002, 45.1448705 ] } },
{ "type": "Feature", "properties": { "@id": "node\/1068836962", "amenity": "drinking_water", "name": null }, "geometry": { "type": "Point", "coordinates": [ 8.450217, 45.1242003 ] } },
{ "type": "Feature", "properties": { "@id": "node\/1075249315", "amenity": "drinking_water", "name": null }, "geometry": { "type": "Point", "coordinates": [ 8.4559302, 45.1246253 ] } },
{ "type": "Feature", "properties": { "@id": "node\/1110631577", "amenity": "drinking_water", "name": null }, "geometry": { "type": "Point", "coordinates": [ 8.4612977, 45.1355397 ] } },
{ "type": "Feature", "properties": { "@id": "node\/1139131609", "amenity": "drinking_water", "name": null }, "geometry": { "type": "Point", "coordinates": [ 8.4497293, 45.1285394 ] } },
{ "type": "Feature", "properties": { "@id": "node\/1142696144", "amenity": "drinking_water", "name": null }, "geometry": { "type": "Point", "coordinates": [ 8.4556983, 45.1381165 ] } },
{ "type": "Feature", "properties": { "@id": "node\/1250835012", "amenity": "drinking_water", "name": null }, "geometry": { "type": "Point", "coordinates": [ 8.4482133, 45.1279285 ] } },
{ "type": "Feature", "properties": { "@id": "node\/1268979523", "amenity": "drinking_water", "name": null }, "geometry": { "type": "Point", "coordinates": [ 8.4576419, 45.1375016 ] } },
{ "type": "Feature", "properties": { "@id": "node\/1277563115", "amenity": "drinking_water", "name": null }, "geometry": { "type": "Point", "coordinates": [ 8.1923357, 45.1937872 ] } },
{ "type": "Feature", "properties": { "@id": "node\/1365142254", "amenity": "drinking_water", "name": null }, "geometry": { "type": "Point", "coordinates": [ 8.3883429, 45.0771867 ] } },
{ "type": "Feature", "properties": { "@id": "node\/1379864939", "amenity": "drinking_water", "name": null }, "geometry": { "type": "Point", "coordinates": [ 8.4443441, 45.1375196 ] } },
{ "type": "Feature", "properties": { "@id": "node\/1392855469", "amenity": "drinking_water", "name": null }, "geometry": { "type": "Point", "coordinates": [ 8.4253701, 45.1617593 ] } },
{ "type": "Feature", "properties": { "@id": "node\/1397533256", "amenity": "drinking_water", "name": null }, "geometry": { "type": "Point", "coordinates": [ 8.4522882, 45.0995638 ] } },
{ "type": "Feature", "properties": { "@id": "node\/1454790417", "amenity": "drinking_water", "name": null }, "geometry": { "type": "Point", "coordinates": [ 8.4489229, 45.1191376 ] } },
{ "type": "Feature", "properties": { "@id": "node\/1469560804", "amenity": "drinking_water", "name": null }, "geometry": { "type": "Point", "coordinates": [ 8.4570496, 44.9906157 ] } },
{ "type": "Feature", "properties": { "@id": "node\/1490859266", "amenity": "drinking_water", "name": null }, "geometry": { "type": "Point", "coordinates": [ 8.1911195, 45.0526455 ] } },
{ "type": "Feature", "properties": { "@id": "node\/1688615763", "amenity": "drinking_water", "name": null }, "geometry": { "type": "Point", "coordinates": [ 8.3009558, 45.1935505 ] } },
{ "type": "Feature", "properties": { "@id": "node\/1703576135", "amenity": "drinking_water", "name": null }, "geometry": { "type": "Point", "coordinates": [ 8.376442, 44.994129 ] } },
{ "type": "Feature", "properties": { "@id": "node\/1703576139", "amenity": "drinking_water", "name": null }, "geometry": { "type": "Point", "coordinates": [ 8.428666, 45.017247 ] } },
{ "type": "Feature", "properties": { "@id": "node\/1703576143", "amenity": "drinking_water", "name": null }, "geometry": { "type": "Point", "coordinates": [ 8.1935673, 45.158824 ] } },
{ "type": "Feature", "properties": { "@id": "node\/1704296389", "amenity": "drinking_water", "name": null }, "geometry": { "type": "Point", "coordinates": [ 8.4557755, 45.1324863 ] } },
{ "type": "Feature", "properties": { "@id": "node\/1707994294", "amenity": "drinking_water", "name": null }, "geometry": { "type": "Point", "coordinates": [ 8.462163, 45.1251415 ] } },
{ "type": "Feature", "properties": { "@id": "node\/1723384712", "amenity": "drinking_water", "name": null }, "geometry": { "type": "Point", "coordinates": [ 8.455561, 45.0984169 ] } },
{ "type": "Feature", "properties": { "@id": "node\/1723410744", "amenity": "drinking_water", "name": null }, "geometry": { "type": "Point", "coordinates": [ 8.4627485, 45.1407051 ] } },
{ "type": "Feature", "properties": { "@id": "node\/1781544820", "amenity": "drinking_water", "name": null }, "geometry": { "type": "Point", "coordinates": [ 8.437958, 45.1339088 ] } },
{ "type": "Feature", "properties": { "@id": "node\/1783340653", "amenity": "drinking_water", "name": null }, "geometry": { "type": "Point", "coordinates": [ 8.3214693, 45.0872006 ] } },
{ "type": "Feature", "properties": { "@id": "node\/1783340656", "amenity": "drinking_water", "name": null }, "geometry": { "type": "Point", "coordinates": [ 8.3179057, 45.0854109 ] } },
{ "type": "Feature", "properties": { "@id": "node\/1917983777", "amenity": "drinking_water", "name": null }, "geometry": { "type": "Point", "coordinates": [ 8.1648201, 45.1133904 ] } },
{ "type": "Feature", "properties": { "@id": "node\/1935874712", "amenity": "drinking_water", "name": null }, "geometry": { "type": "Point", "coordinates": [ 8.1588038, 45.112392 ] } },
{ "type": "Feature", "properties": { "@id": "node\/1937351434", "amenity": "drinking_water", "name": null }, "geometry": { "type": "Point", "coordinates": [ 8.1619492, 45.1422011 ] } },
{ "type": "Feature", "properties": { "@id": "node\/2002241097", "amenity": "drinking_water", "name": null }, "geometry": { "type": "Point", "coordinates": [ 8.3614569, 45.0973599 ] } },
{ "type": "Feature", "properties": { "@id": "node\/2002241098", "amenity": "drinking_water", "name": null }, "geometry": { "type": "Point", "coordinates": [ 8.3610573, 45.0969072 ] } },
{ "type": "Feature", "properties": { "@id": "node\/2271155586", "amenity": "drinking_water", "name": null }, "geometry": { "type": "Point", "coordinates": [ 8.382894, 45.0628044 ] } },
{ "type": "Feature", "properties": { "@id": "node\/2289420076", "amenity": "drinking_water", "name": null }, "geometry": { "type": "Point", "coordinates": [ 8.1908775, 45.051306 ] } },
{ "type": "Feature", "properties": { "@id": "node\/2289420077", "amenity": "drinking_water", "name": null }, "geometry": { "type": "Point", "coordinates": [ 8.177799, 45.0559559 ] } },
{ "type": "Feature", "properties": { "@id": "node\/2289422564", "amenity": "drinking_water", "name": null }, "geometry": { "type": "Point", "coordinates": [ 8.1619383, 45.0551311 ] } },
{ "type": "Feature", "properties": { "@id": "node\/2289422567", "amenity": "drinking_water", "name": null }, "geometry": { "type": "Point", "coordinates": [ 8.1649459, 45.0707369 ] } },
{ "type": "Feature", "properties": { "@id": "node\/2289422573", "amenity": "drinking_water", "name": null }, "geometry": { "type": "Point", "coordinates": [ 8.1786574, 45.069642 ] } },
{ "type": "Feature", "properties": { "@id": "node\/2289422577", "amenity": "drinking_water", "name": null }, "geometry": { "type": "Point", "coordinates": [ 8.1698222, 45.0669861 ] } },
{ "type": "Feature", "properties": { "@id": "node\/2289670797", "amenity": "drinking_water", "name": null }, "geometry": { "type": "Point", "coordinates": [ 8.098668, 45.0637437 ] } },
{ "type": "Feature", "properties": { "@id": "node\/2295250012", "amenity": "drinking_water", "name": null }, "geometry": { "type": "Point", "coordinates": [ 8.2539107, 45.118395 ] } },
{ "type": "Feature", "properties": { "@id": "node\/2304120928", "amenity": "drinking_water", "name": null }, "geometry": { "type": "Point", "coordinates": [ 8.0509438, 45.1523823 ] } },
{ "type": "Feature", "properties": { "@id": "node\/2312645045", "amenity": "drinking_water", "name": null }, "geometry": { "type": "Point", "coordinates": [ 8.3720386, 45.1471096 ] } },
{ "type": "Feature", "properties": { "@id": "node\/2312645082", "amenity": "drinking_water", "name": null }, "geometry": { "type": "Point", "coordinates": [ 8.3678854, 45.1479946 ] } },
{ "type": "Feature", "properties": { "@id": "node\/2335271333", "amenity": "drinking_water", "name": null }, "geometry": { "type": "Point", "coordinates": [ 8.3082486, 45.1021604 ] } },
{ "type": "Feature", "properties": { "@id": "node\/2335271335", "amenity": "drinking_water", "name": null }, "geometry": { "type": "Point", "coordinates": [ 8.3671053, 45.1645669 ] } },
{ "type": "Feature", "properties": { "@id": "node\/2341568500", "amenity": "drinking_water", "name": null }, "geometry": { "type": "Point", "coordinates": [ 8.2267673, 45.1603159 ] } },
{ "type": "Feature", "properties": { "@id": "node\/2344940958", "amenity": "drinking_water", "name": null }, "geometry": { "type": "Point", "coordinates": [ 8.2516265, 45.1569369 ] } },
{ "type": "Feature", "properties": { "@id": "node\/2344940965", "amenity": "drinking_water", "name": null }, "geometry": { "type": "Point", "coordinates": [ 8.0949423, 45.1593852 ] } },
{ "type": "Feature", "properties": { "@id": "node\/2349124903", "amenity": "drinking_water", "name": null }, "geometry": { "type": "Point", "coordinates": [ 8.0675958, 45.1129996 ] } },
{ "type": "Feature", "properties": { "@id": "node\/2349136894", "amenity": "drinking_water", "name": null }, "geometry": { "type": "Point", "coordinates": [ 8.2093828, 45.0717373 ] } },
{ "type": "Feature", "properties": { "@id": "node\/2349141358", "amenity": "drinking_water", "name": null }, "geometry": { "type": "Point", "coordinates": [ 8.2276271, 45.0649556 ] } },
{ "type": "Feature", "properties": { "@id": "node\/2349165041", "amenity": "drinking_water", "name": null }, "geometry": { "type": "Point", "coordinates": [ 8.0603061, 45.1575296 ] } },
{ "type": "Feature", "properties": { "@id": "node\/2352492646", "amenity": "drinking_water", "name": null }, "geometry": { "type": "Point", "coordinates": [ 8.4909656, 45.0036533 ] } },
{ "type": "Feature", "properties": { "@id": "node\/2358236594", "amenity": "drinking_water", "name": null }, "geometry": { "type": "Point", "coordinates": [ 8.3674199, 45.037239 ] } },
{ "type": "Feature", "properties": { "@id": "node\/2358245352", "amenity": "drinking_water", "name": null }, "geometry": { "type": "Point", "coordinates": [ 8.2754488, 45.0946071 ] } },
{ "type": "Feature", "properties": { "@id": "node\/2358261631", "amenity": "drinking_water", "name": null }, "geometry": { "type": "Point", "coordinates": [ 8.3136585, 45.039831 ] } },
{ "type": "Feature", "properties": { "@id": "node\/2358271901", "amenity": "drinking_water", "name": null }, "geometry": { "type": "Point", "coordinates": [ 8.2504684, 45.0310476 ] } },
{ "type": "Feature", "properties": { "@id": "node\/2368403658", "amenity": "drinking_water", "name": null }, "geometry": { "type": "Point", "coordinates": [ 8.209529, 45.0786983 ] } },
{ "type": "Feature", "properties": { "@id": "node\/2392692668", "amenity": "drinking_water", "name": null }, "geometry": { "type": "Point", "coordinates": [ 8.3650411, 45.1650756 ] } },
{ "type": "Feature", "properties": { "@id": "node\/2424234717", "amenity": "drinking_water", "name": null }, "geometry": { "type": "Point", "coordinates": [ 8.1620175, 45.0515668 ] } },
{ "type": "Feature", "properties": { "@id": "node\/2476670814", "amenity": "drinking_water", "name": null }, "geometry": { "type": "Point", "coordinates": [ 8.1920563, 45.1916745 ] } },
{ "type": "Feature", "properties": { "@id": "node\/2485193919", "amenity": "drinking_water", "name": null }, "geometry": { "type": "Point", "coordinates": [ 8.1608759, 45.0489918 ] } },
{ "type": "Feature", "properties": { "@id": "node\/2485202616", "amenity": "drinking_water", "name": null }, "geometry": { "type": "Point", "coordinates": [ 8.2099214, 45.0414645 ] } },
{ "type": "Feature", "properties": { "@id": "node\/2947351559", "amenity": "drinking_water", "name": "Fontana pubblica" }, "geometry": { "type": "Point", "coordinates": [ 8.3542589, 45.1274336 ] } },
{ "type": "Feature", "properties": { "@id": "node\/2947353933", "amenity": "drinking_water", "name": null }, "geometry": { "type": "Point", "coordinates": [ 8.3293358, 45.1408238 ] } },
{ "type": "Feature", "properties": { "@id": "node\/2968677624", "amenity": "drinking_water", "name": "Fontana solforosa di Pirenta" }, "geometry": { "type": "Point", "coordinates": [ 8.0725158, 45.1061016 ] } },
{ "type": "Feature", "properties": { "@id": "node\/3139881257", "amenity": "drinking_water", "name": "Fontana Bric del Lupo" }, "geometry": { "type": "Point", "coordinates": [ 8.2675963, 45.1414736 ] } },
{ "type": "Feature", "properties": { "@id": "node\/3161068281", "amenity": "drinking_water", "name": "Fontana" }, "geometry": { "type": "Point", "coordinates": [ 8.3140043, 45.0400974 ] } },
{ "type": "Feature", "properties": { "@id": "node\/3225197735", "amenity": "drinking_water", "name": null }, "geometry": { "type": "Point", "coordinates": [ 8.4147013, 45.1077853 ] } }
]
}
